GLOBALSTAR M023         
1 25621U 99004A   25299.95976144 -.00000122  00000+0 -10219-3 0  9992
2 25621  52.0135  12.1880 0010343  60.2678 110.8731 12.62507471232377
GLOBALSTAR M040         
1 25622U 99004B   25299.98626464 -.00000065  00000+0  21526-3 0  9991
2 25622  51.9946  16.4567 0000404 350.9291 180.4300 12.62020597231892
GLOBALSTAR M036         
1 25623U 99004C   25299.95128100 -.00000011  00000+0  10409-2 0  9991
2 25623  51.9960 253.0153 0010619 305.0372  97.6076 11.86612893194628
GLOBALSTAR M038         
1 25624U 99004D   25299.73777788 -.00000067  00000+0  22886-3 0  9994
2 25624  51.9988  52.7156 0001240 348.2423 178.4057 12.32534504218596
GLOBALSTAR M022         
1 25649U 99012A   25299.97846410 -.00000058  00000+0  34125-3 0  9994
2 25649  52.0045 292.6320 0002926  70.9081 305.3089 12.02505161192230
GLOBALSTAR M041         
1 25650U 99012B   25299.93959557 -.00000113  00000+0 -35836-3 0  9992
2 25650  52.0003 178.2051 0000750 183.7440 176.3391 11.96680422194051
GLOBALSTAR M046         
1 25651U 99012C   25299.82759205 -.00000084  00000+0  57092-4 0  9994
2 25651  52.0051 238.3701 0001956 137.7241 249.0257 12.09415611199596
GLOBALSTAR M037         
1 25652U 99012D   25299.83036884 -.00000091  00000+0  73255-4 0  9994
2 25652  51.9981 143.1533 0002906 106.8571 266.3110 12.62453196227908
